satname,norad_id,inclination_deg,eccentricity,mean_motion_rev_per_day,perigee_km,apogee_km,l1,l2
STARLINK-1316,45415,53.1556,0.0001824,15.41021346,441.8495121481874,444.3378971092352,1 45415U 20019BH  26181.80035597  .00061383  00000+0  14630-2 0  9992,2 45415  53.1556 319.6397 0001824 144.1844 215.9284 15.41021346347377
STARLINK-1286,45417,53.0456,0.0004422,15.6670205,365.36482490389153,371.33141634457115,1 45417U 20019BK  26181.72257366  .00062083  00000+0  58023-3 0  9998,2 45417  53.0456 301.9994 0004422 330.7546  29.3221 15.66702050347848
STARLINK-1308,45419,53.0466,0.0005102,15.6803367,361.08793060549124,367.9681460105803,1 45419U 20019BM  26181.79060995  .00055154  00000+0  48930-3 0  9994,2 45419  53.0466 320.8158 0005102 101.9658 258.1929 15.68033670347339
STARLINK-1329,45531,53.0386,0.000313,15.76436158,338.4445816315201,342.6504781472304,1 45531U 20025A   26181.47585209  .00067743  00000+0  41985-3 0  9991,2 45531  53.0386 244.7552 0003130 339.3923  20.6969 15.76436158343157
STARLINK-1338,45532,53.0421,0.0002427,15.73523957,347.20208021684175,350.46735228791204,1 45532U 20025B   26182.00001157  .00056510  00000+0  39869-3 0  9995,2 45532  53.0421 249.5177 0002427  50.0267 266.9208 15.73523957  5988
STARLINK-1350,45535,53.0701,0.0001575,15.39162124,447.5105013274897,449.66091898118793,1 45535U 20025E   26181.37866068  .00037571  00000+0  95881-3 0  9999,2 45535  53.0701 222.8062 0001575  41.1687 318.9435 15.39162124343497
STARLINK-1362,45538,53.1571,0.0003652,15.39423056,445.321431905234,450.3071067123374,1 45538U 20025H   26181.73439039  .00049717  00000+0  12527-2 0  9996,2 45538  53.1571 292.5639 0003652 299.5838  60.4803 15.39423056342531
STARLINK-1368,45540,53.1546,0.0003006,15.39676451,445.0136642049174,449.11697583971545,1 45540U 20025K   26181.48613069  .00079529  00000+0  19737-2 0  9992,2 45540  53.1546 294.0802 0003006 275.6094  84.4568 15.39676451342484
STARLINK-1371,45542,53.0423,0.000197,15.70671263,355.650569135777,358.3042042041243,1 45542U 20025M   26181.59365523  .00053780  00000+0  42838-3 0  9995,2 45542  53.0423 261.8979 0001970  43.3653 316.7519 15.70671263342922
STARLINK-1372,45543,53.1575,0.0001557,15.39951978,445.18863193906964,447.31374642118135,1 45543U 20025N   26181.50292342  .00047019  00000+0  11654-2 0  9994,2 45543  53.1575 293.4252 0001557 291.6185  68.4654 15.39951978341598
STARLINK-1373,45544,53.0436,0.0002515,15.72387533,350.38290225494256,353.768199167951,1 45544U 20025P   26181.44610511  .00051261  00000+0  38023-3 0  9994,2 45544  53.0436 257.4194 0002515  41.2241 318.8966 15.72387533342974
STARLINK-1327,45555,53.0381,0.0002253,15.74060789,345.7899021301191,348.82038636031666,1 45555U 20025AA  26181.43617691  .00058545  00000+0  40340-3 0  9998,2 45555  53.0381 234.7521 0002253  54.3229 305.7998 15.74060789343285
STARLINK-1356,45564,53.0414,0.0003529,15.67126899,364.74834392163484,369.50915248671754,1 45564U 20025AK  26181.45401527  .00041657  00000+0  38543-3 0  9997,2 45564  53.0414 248.5140 0003529  12.6523 347.4581 15.67126899343090
STARLINK-1357,45565,53.0411,0.0001493,15.72097602,351.898051792924,353.9079403357482,1 45565U 20025AL  26181.48344592  .00056398  00000+0  42280-3 0  9990,2 45565  53.0411 204.3300 0001493 167.1369 192.9687 15.72097602343723
STARLINK-1361,45567,53.0397,0.000231,15.70709375,355.312651883155,358.42422439557595,1 45567U 20025AN  26181.88597981  .00068857  00000+0  54528-3 0  9999,2 45567  53.0397 244.5672 0002310  56.0689 304.0547 15.70709375343193
STARLINK-1376,45570,53.1549,0.0001282,15.4048852,443.7918208161491,445.5411876346325,1 45570U 20025AR  26181.60343152  .00048424  00000+0  11787-2 0  9999,2 45570  53.1549 269.2841 0001282 284.6473  75.4390 15.40488520342845
STARLINK-1320,45572,53.0366,0.0007046,15.95003598,283.6071853267449,293.00153449112804,1 45572U 20025AT  26182.00001157  .00210873  28426-4  53638-3 0  9990,2 45572  53.0366 137.3996 0007046  60.0928 323.0256 15.95003598  6033
STARLINK-1321,45573,53.0394,0.0001863,15.71161627,354.32145750750533,356.83043895201627,1 45573U 20025AU  26181.50594496  .00052293  00000+0  40830-3 0  9991,2 45573  53.0394 230.2545 0001863  61.5687 298.5518 15.71161627343052
STARLINK-1331,45578,53.0436,0.0001686,15.70924942,355.1168743403059,357.3877104096955,1 45578U 20025AZ  26181.78674057  .00052780  00000+0  41613-3 0  9999,2 45578  53.0436 235.8117 0001686  57.0878 303.0301 15.70924942343312
STARLINK-1333,45580,53.1561,0.000288,15.37467503,451.63359633886466,455.568677505732,1 45580U 20025BB  26181.95646810  .00080502  00000+0  21466-2 0  9993,2 45580  53.1561 269.6349 0002880 325.3490  34.7326 15.37467503342878
STARLINK-1335,45581,53.154,0.000235,15.39229968,446.78087690393204,449.98934229544375,1 45581U 20025BC  26181.96044674  .00060499  00000+0  15298-2 0  9994,2 45581  53.1540 266.0504 0002350 275.5234  84.5502 15.39229968342911
STARLINK-1337,45582,53.0407,0.0002056,15.78001487,334.7231946705324,337.4840904227467,1 45582U 20025BD  26181.95963373  .00095534  00000+0  54913-3 0  9996,2 45582  53.0407 222.7717 0002056  90.6731 269.4524 15.78001487343498
STARLINK-1347,45586,53.0347,0.0001587,15.71003683,354.9585536722461,357.0959774101293,1 45586U 20025BH  26181.47092535  .00054763  00000+0  43008-3 0  9992,2 45586  53.0347 196.7418 0001587  39.8694 320.2439 15.71003683343814
STARLINK-1364,45589,53.0386,0.0003536,15.71843373,351.2484070306209,356.00911177567014,1 45589U 20025BL  26181.40372745  .00049132  00000+0  37314-3 0  9999,2 45589  53.0386 233.6578 0003536  11.8660 348.2440 15.71843373343299
STARLINK-1365,45590,53.0442,0.0001426,15.6735013,365.5264831326149,367.45005025867613,1 45590U 20025BM  26181.95080405  .00054946  00000+0  50146-3 0  9997,2 45590  53.0442 266.3271 0001426  39.8960 320.2160 15.67350130342901
STARLINK-1443,45660,53.1326,0.000176,15.34405211,461.4837669044073,463.8917372171318,1 45660U 20035D   26181.92942021  .00032653  00000+0  97315-3 0  9994,2 45660  53.1326 258.8789 0001760  27.9238 332.1859 15.34405211336093
STARLINK-1446,45663,53.0197,0.0002023,15.48983969,418.3218630571173,421.0722667197715,1 45663U 20035G   26181.31603420  .00031349  00000+0  57589-3 0  9997,2 45663  53.0197 182.0809 0002023 343.3090  16.7850 15.48983969337099
STARLINK-1448,45665,53.0393,0.0002294,15.75328183,342.1554718664838,345.23944951704925,1 45665U 20035J   26181.92595154  .00087736  00000+0  56826-3 0  9994,2 45665  53.0393 218.2678 0002294  64.4908 295.6348 15.75328183336634
STARLINK-1451,45668,53.051,8.97e-05,15.15311694,519.4136801308714,520.6512117294706,1 45668U 20035M   26181.65769273  .00025488  00000+0  13485-2 0  9991,2 45668  53.0510 273.9123 0000897 339.2080  20.8876 15.15311694335841
STARLINK-1452,45669,53.0208,0.0007639,15.62950964,373.97631174478647,384.3000767865851,1 45669U 20035N   26181.32427725  .00089837  00000+0  96746-3 0  9999,2 45669  53.0208 198.0686 0007639  22.6033 337.5315 15.62950964336870
STARLINK-1453,45670,53.0358,0.0001923,15.75869529,340.86566072035293,343.450286167139,1 45670U 20035P   26181.95097172  .00107299  00000+0  67629-3 0  9990,2 45670  53.0358 178.3478 0001923  92.2737 267.8503 15.75869529337091
STARLINK-1454,45671,53.0402,0.0001594,15.73781203,347.0294854922395,349.17381037320047,1 45671U 20035Q   26181.50991549  .00067899  00000+0  47231-3 0  9991,2 45671  53.0402 221.8359 0001594  56.8090 303.3081 15.73781203336542
STARLINK-1456,45673,53.0388,0.0001691,15.70442967,356.4910770444958,358.7691134761126,1 45673U 20035S   26181.37889784  .00049941  00000+0  40213-3 0  9996,2 45673  53.0388 217.3919 0001691  47.3000 312.8159 15.70442967336610
STARLINK-1458,45675,53.0425,0.0004356,15.61317136,380.9059151985384,386.79695952516795,1 45675U 20035U   26181.40038287  .00105967  00000+0  12134-2 0  9997,2 45675  53.0425 233.3336 0004356  17.3310 342.7851 15.61317136336358
STARLINK-1460,45676,53.1544,0.000391,15.37371478,451.21428899984767,456.5569306807438,1 45676U 20035V   26181.93463225  .00076467  00000+0  20467-2 0  9990,2 45676  53.1544 256.9532 0003910 324.4207  35.6536 15.37371478336083
STARLINK-1392,45677,53.1517,0.0004331,15.4066056,441.2038400086685,447.1133124367925,1 45677U 20035W   26181.64228974  .00046961  00000+0  11369-2 0  9996,2 45677  53.1517 256.4015 0004331 332.2437  27.8337 15.40660560336107
STARLINK-1394,45679,53.0365,0.0001249,15.69144461,360.5038312285915,362.18735398022454,1 45679U 20035Y   26181.32789659  .00043440  00000+0  37001-3 0  9996,2 45679  53.0365 208.0326 0001249  67.9119 292.2029 15.69144461336734
STARLINK-1402,45685,53.0379,0.0001492,15.6249253,379.4514662483789,381.46823154809044,1 45685U 20035AE  26182.00001157  .00792286  00000+0  80436-2 0  9997,2 45685  53.0379 196.8361 0001492  87.8667 150.8410 15.62492530  5965
STARLINK-1404,45686,53.1538,0.0004111,15.46696295,423.6010563239215,429.19574533048217,1 45686U 20035AF  26181.41359723  .00034129  00000+0  67762-3 0  9990,2 45686  53.1538 238.1129 0004111 314.9072  45.1602 15.46696295336345
STARLINK-1413,45689,53.1555,0.0003881,15.37066496,452.13745310413015,457.4411705073526,1 45689U 20035AJ  26181.45432846  .00032567  00000+0  89149-3 0  9992,2 45689  53.1555 243.8654 0003881 338.7881  21.2961 15.37066496336187
STARLINK-1417,45693,53.0506,0.0002412,15.17887866,510.5631937943808,513.8871044951293,1 45693U 20035AN  26181.45397912  .00025027  00000+0  12309-2 0  9997,2 45693  53.0506 261.0847 0002412 239.1168 120.9589 15.17887866335995
STARLINK-1420,45695,53.0425,0.0001747,15.72990469,349.1801545473809,351.5310898695816,1 45695U 20035AQ  26181.29494610  .00057987  00000+0  41837-3 0  9993,2 45695  53.0425 190.8480 0001747  92.7273 267.3944 15.72990469336974
STARLINK-1422,45696,53.1547,0.0001484,15.38889803,448.3778496951927,450.4042600218745,1 45696U 20035AR  26181.44862707  .00047048  00000+0  12074-2 0  9994,2 45696  53.1547 243.7443 0001484  67.4971 292.6191 15.38889803336268
